{"type": "FeatureCollection", "features": [{"type": "Feature", "properties": {"norad_id": 32275, "name": "COSMOS 2433 (720)", "group": "glo-ops", "lat": -13.52566703074523, "lon": -44.42619947146854, "alt_km": 19131.80597700237, "timestamp": "2025-12-23T20:42:37.336459+00:00", "meta": {"OBJECT_NAME": "COSMOS 2433 (720)", "OBJECT_ID": "2007-052A", "EPOCH": "2025-12-22T00:07:36.568704", "MEAN_MOTION": 2.13104226, "ECCENTRICITY": 0.00051704, "INCLINATION": 65.6781, "RA_OF_ASC_NODE": 321.8942, "ARG_OF_PERICENTER": 255.846, "MEAN_ANOMALY": 104.0915, "EPHEMERIS_TYPE": 0, "CLASSIFICATION_TYPE": "U", "NORAD_CAT_ID": 32275, "ELEMENT_SET_NO": 999, "REV_AT_EPOCH": 14128, "BSTAR": 0, "MEAN_MOTION_DOT": -4.2e-07, "MEAN_MOTION_DDOT": 0}, "tle": {"line1": "1 32275U 07052A   25356.00528436 -.00000042  00000+0  00000+0 0  9997", "line2": "2 32275  65.6781 321.8942 0005170 255.8460 104.0915  2.13104226141283"}}, "geometry": {"type": "Point", "coordinates": [-44.42619947146854, -13.52566703074523]}}, {"type": "Feature", "properties": {"norad_id": 32276, "name": "COSMOS 2432 (719)", "group": "glo-ops", "lat": -59.23385289531022, "lon": -87.40853134164941, "alt_km": 19109.822925369084, "timestamp": "2025-12-23T20:42:37.336484+00:00", "meta": {"OBJECT_NAME": "COSMOS 2432 (719)", "OBJECT_ID": "2007-052B", "EPOCH": "2025-12-23T06:07:11.644032", "MEAN_MOTION": 2.13103423, "ECCENTRICITY": 0.00113597, "INCLINATION": 65.6934, "RA_OF_ASC_NODE": 321.9768, "ARG_OF_PERICENTER": 314.4802, "MEAN_ANOMALY": 228.6315, "EPHEMERIS_TYPE": 0, "CLASSIFICATION_TYPE": "U", "NORAD_CAT_ID": 32276, "ELEMENT_SET_NO": 999, "REV_AT_EPOCH": 14133, "BSTAR": 0, "MEAN_MOTION_DOT": -3.6e-07, "MEAN_MOTION_DDOT": 0}, "tle": {"line1": "1 32276U 07052B   25357.25499588 -.00000036  00000+0  00000+0 0  9994", "line2": "2 32276  65.6934 321.9768 0011359 314.4802 228.6315  2.13103423141330"}}, "geometry": {"type": "Point", "coordinates": [-87.40853134164941, -59.23385289531022]}}, {"type": "Feature", "properties": {"norad_id": 32393, "name": "COSMOS 2434 (721)", "group": "glo-ops", "lat": -48.06779105791604, "lon": 50.24665714549832, "alt_km": 19147.314984250912, "timestamp": "2025-12-23T20:42:37.336500+00:00", "meta": {"OBJECT_NAME": "COSMOS 2434 (721)", "OBJECT_ID": "2007-065A", "EPOCH": "2025-12-22T08:26:32.754336", "MEAN_MOTION": 2.13101487, "ECCENTRICITY": 0.00048131, "INCLINATION": 64.3157, "RA_OF_ASC_NODE": 197.8788, "ARG_OF_PERICENTER": 72.4714, "MEAN_ANOMALY": 83.8697, "EPHEMERIS_TYPE": 0, "CLASSIFICATION_TYPE": "U", "NORAD_CAT_ID": 32393, "ELEMENT_SET_NO": 999, "REV_AT_EPOCH": 14000, "BSTAR": 0, "MEAN_MOTION_DOT": 9.5e-07, "MEAN_MOTION_DDOT": 0}, "tle": {"line1": "1 32393U 07065A   25356.35176799  .00000095  00000+0  00000+0 0  9998", "line2": "2 32393  64.3157 197.8788 0004813  72.4714  83.8697  2.13101487140000"}}, "geometry": {"type": "Point", "coordinates": [50.24665714549832, -48.06779105791604]}}, {"type": "Feature", "properties": {"norad_id": 32395, "name": "COSMOS 2436 (723)", "group": "glo-ops", "lat": 7.759650749178129, "lon": -158.33667003642256, "alt_km": 19084.13663032404, "timestamp": "2025-12-23T20:42:37.336513+00:00", "meta": {"OBJECT_NAME": "COSMOS 2436 (723)", "OBJECT_ID": "2007-065C", "EPOCH": "2025-12-23T03:59:34.800000", "MEAN_MOTION": 2.13100231, "ECCENTRICITY": 0.00178059, "INCLINATION": 64.3245, "RA_OF_ASC_NODE": 197.9217, "ARG_OF_PERICENTER": 10.2027, "MEAN_ANOMALY": 184.1085, "EPHEMERIS_TYPE": 0, "CLASSIFICATION_TYPE": "U", "NORAD_CAT_ID": 32395, "ELEMENT_SET_NO": 999, "REV_AT_EPOCH": 13997, "BSTAR": 0, "MEAN_MOTION_DOT": 9.5e-07, "MEAN_MOTION_DDOT": 0}, "tle": {"line1": "1 32395U 07065C   25357.16637500  .00000095  00000+0  00000+0 0  9992", "line2": "2 32395  64.3245 197.9217 0017805  10.2027 184.1085  2.13100231139976"}}, "geometry": {"type": "Point", "coordinates": [-158.33667003642256, 7.759650749178129]}}, {"type": "Feature", "properties": {"norad_id": 36111, "name": "COSMOS 2456 (730)", "group": "glo-ops", "lat": 29.376416579099295, "lon": 92.24309442861049, "alt_km": 19127.620399829102, "timestamp": "2025-12-23T20:42:37.336525+00:00", "meta": {"OBJECT_NAME": "COSMOS 2456 (730)", "OBJECT_ID": "2009-070A", "EPOCH": "2025-12-23T08:10:18.888096", "MEAN_MOTION": 2.13103774, "ECCENTRICITY": 0.00036109, "INCLINATION": 64.9055, "RA_OF_ASC_NODE": 76.9756, "ARG_OF_PERICENTER": 295.3784, "MEAN_ANOMALY": 56.6202, "EPHEMERIS_TYPE": 0, "CLASSIFICATION_TYPE": "U", "NORAD_CAT_ID": 36111, "ELEMENT_SET_NO": 999, "REV_AT_EPOCH": 12467, "BSTAR": 0, "MEAN_MOTION_DOT": -1e-08, "MEAN_MOTION_DDOT": 0}, "tle": {"line1": "1 36111U 09070A   25357.34049639 -.00000001  00000+0  00000+0 0  9998", "line2": "2 36111  64.9055  76.9756 0003610 295.3784  56.6202  2.13103774124670"}}, "geometry": {"type": "Point", "coordinates": [92.24309442861049, 29.376416579099295]}}, {"type": "Feature", "properties": {"norad_id": 36112, "name": "COSMOS 2457 (733)", "group": "glo-ops", "lat": 16.39312958958108, "lon": -111.0977051238914, "alt_km": 19116.86859590488, "timestamp": "2025-12-23T20:42:37.336555+00:00", "meta": {"OBJECT_NAME": "COSMOS 2457 (733)", "OBJECT_ID": "2009-070B", "EPOCH": "2025-12-23T04:05:37.472640", "MEAN_MOTION": 2.13101144, "ECCENTRICITY": 0.00044981, "INCLINATION": 64.891, "RA_OF_ASC_NODE": 76.8287, "ARG_OF_PERICENTER": 163.0286, "MEAN_ANOMALY": 187.6554, "EPHEMERIS_TYPE": 0, "CLASSIFICATION_TYPE": "U", "NORAD_CAT_ID": 36112, "ELEMENT_SET_NO": 999, "REV_AT_EPOCH": 12467, "BSTAR": 0, "MEAN_MOTION_DOT": -2e-08, "MEAN_MOTION_DDOT": 0}, "tle": {"line1": "1 36112U 09070B   25357.17057260 -.00000002  00000+0  00000+0 0  9990", "line2": "2 36112  64.8910  76.8287 0004498 163.0286 187.6554  2.13101144124675"}}, "geometry": {"type": "Point", "coordinates": [-111.0977051238914, 16.39312958958108]}}, {"type": "Feature", "properties": {"norad_id": 36402, "name": "COSMOS 2460 (732)", "group": "glo-ops", "lat": 16.76202955479455, "lon": 132.50136522913556, "alt_km": 19131.292240144063, "timestamp": "2025-12-23T20:42:37.336570+00:00", "meta": {"OBJECT_NAME": "COSMOS 2460 (732)", "OBJECT_ID": "2010-007C", "EPOCH": "2025-12-22T12:30:28.820160", "MEAN_MOTION": 2.1310637, "ECCENTRICITY": 0.00025026, "INCLINATION": 65.5243, "RA_OF_ASC_NODE": 320.4432, "ARG_OF_PERICENTER": 283.7046, "MEAN_ANOMALY": 288.4145, "EPHEMERIS_TYPE": 0, "CLASSIFICATION_TYPE": "U", "NORAD_CAT_ID": 36402, "ELEMENT_SET_NO": 999, "REV_AT_EPOCH": 12296, "BSTAR": 0, "MEAN_MOTION_DOT": -3.9e-07, "MEAN_MOTION_DDOT": 0}, "tle": {"line1": "1 36402U 10007C   25356.52116690 -.00000039  00000+0  00000+0 0  9995", "line2": "2 36402  65.5243 320.4432 0002502 283.7046 288.4145  2.13106370122964"}}, "geometry": {"type": "Point", "coordinates": [132.50136522913556, 16.76202955479455]}}, {"type": "Feature", "properties": {"norad_id": 37867, "name": "COSMOS 2476 (744)", "group": "glo-ops", "lat": -50.81589828789736, "lon": 44.255516689796444, "alt_km": 19109.870131409516, "timestamp": "2025-12-23T20:42:37.336581+00:00", "meta": {"OBJECT_NAME": "COSMOS 2476 (744)", "OBJECT_ID": "2011-064A", "EPOCH": "2025-12-23T12:51:54.046080", "MEAN_MOTION": 2.13103692, "ECCENTRICITY": 0.002455, "INCLINATION": 65.1675, "RA_OF_ASC_NODE": 78.8064, "ARG_OF_PERICENTER": 235.5255, "MEAN_ANOMALY": 174.828, "EPHEMERIS_TYPE": 0, "CLASSIFICATION_TYPE": "U", "NORAD_CAT_ID": 37867, "ELEMENT_SET_NO": 999, "REV_AT_EPOCH": 11002, "BSTAR": 0, "MEAN_MOTION_DOT": 1e-08, "MEAN_MOTION_DDOT": 0}, "tle": {"line1": "1 37867U 11064A   25357.53604220  .00000001  00000+0  00000+0 0  9996", "line2": "2 37867  65.1675  78.8064 0024550 235.5255 174.8280  2.13103692110020"}}, "geometry": {"type": "Point", "coordinates": [44.255516689796444, -50.81589828789736]}}, {"type": "Feature", "properties": {"norad_id": 37868, "name": "COSMOS 2477 (745)", "group": "glo-ops", "lat": 50.485890870458256, "lon": -135.19528785508885, "alt_km": 19145.99528607361, "timestamp": "2025-12-23T20:42:37.336593+00:00", "meta": {"OBJECT_NAME": "COSMOS 2477 (745)", "OBJECT_ID": "2011-064B", "EPOCH": "2025-12-23T05:19:57.056160", "MEAN_MOTION": 2.13103036, "ECCENTRICITY": 0.00215459, "INCLINATION": 65.1742, "RA_OF_ASC_NODE": 78.8944, "ARG_OF_PERICENTER": 235.4149, "MEAN_ANOMALY": 115.0574, "EPHEMERIS_TYPE": 0, "CLASSIFICATION_TYPE": "U", "NORAD_CAT_ID": 37868, "ELEMENT_SET_NO": 999, "REV_AT_EPOCH": 11000, "BSTAR": 0, "MEAN_MOTION_DOT": 0, "MEAN_MOTION_DDOT": 0}, "tle": {"line1": "1 37868U 11064B   25357.22218815  .00000000  00000+0  00000+0 0  9993", "line2": "2 37868  65.1742  78.8944 0021545 235.4149 115.0574  2.13103036110008"}}, "geometry": {"type": "Point", "coordinates": [-135.19528785508885, 50.485890870458256]}}, {"type": "Feature", "properties": {"norad_id": 37869, "name": "COSMOS 2475 (743)", "group": "glo-ops", "lat": 62.5561703809605, "lon": 141.73794829695933, "alt_km": 19190.44404059985, "timestamp": "2025-12-23T20:42:37.336604+00:00", "meta": {"OBJECT_NAME": "COSMOS 2475 (743)", "OBJECT_ID": "2011-064C", "EPOCH": "2025-12-23T06:48:57.377088", "MEAN_MOTION": 2.13101654, "ECCENTRICITY": 0.00266814, "INCLINATION": 65.1811, "RA_OF_ASC_NODE": 78.9126, "ARG_OF_PERICENTER": 249.1292, "MEAN_ANOMALY": 104.6561, "EPHEMERIS_TYPE": 0, "CLASSIFICATION_TYPE": "U", "NORAD_CAT_ID": 37869, "ELEMENT_SET_NO": 999, "REV_AT_EPOCH": 11001, "BSTAR": 0, "MEAN_MOTION_DOT": 1e-08, "MEAN_MOTION_DDOT": 0}, "tle": {"line1": "1 37869U 11064C   25357.28399742  .00000001  00000+0  00000+0 0  9990", "line2": "2 37869  65.1811  78.9126 0026681 249.1292 104.6561  2.13101654110011"}}, "geometry": {"type": "Point", "coordinates": [141.73794829695933, 62.5561703809605]}}]}